STARLINK-36669          
1 68675U 26077P   26112.53986544 -.01027660  00000+0 -75460-2 0  9997
2 68675  97.2832 343.6023 0000804 104.5030 255.6324 15.75434095  1811
